[{"OBJECT_NAME":"STARLINK-35769","OBJECT_ID":"2025-280X","EPOCH":"2026-03-09T21:57:25.785792","MEAN_MOTION":14.98327792,"ECCENTRICITY":0.00037575,"INCLINATION":70.0017,"RA_OF_ASC_NODE":333.7221,"ARG_OF_PERICENTER":286.9763,"MEAN_ANOMALY":73.0984,"EPHEMERIS_TYPE":0,"CLASSIFICATION_TYPE":"U","NORAD_CAT_ID":66842,"ELEMENT_SET_NO":999,"REV_AT_EPOCH":1611,"BSTAR":0.0013743089,"MEAN_MOTION_DOT":0.00016343,"MEAN_MOTION_DDOT":0},{"OBJECT_NAME":"PSLV DEB","OBJECT_ID":"2001-049BU","EPOCH":"2026-03-09T17:49:30.118080","MEAN_MOTION":14.92717498,"ECCENTRICITY":0.00287316,"INCLINATION":98.0611,"RA_OF_ASC_NODE":133.044,"ARG_OF_PERICENTER":17.6514,"MEAN_ANOMALY":97.6538,"EPHEMERIS_TYPE":0,"CLASSIFICATION_TYPE":"U","NORAD_CAT_ID":27124,"ELEMENT_SET_NO":999,"REV_AT_EPOCH":30489,"BSTAR":0.00040608061,"MEAN_MOTION_DOT":4.163e-5,"MEAN_MOTION_DDOT":0}]
